{
 "type": "FeatureCollection",
 "features": [
  {
   "type": "Feature",
   "properties": {
    "id": "route-00"
   },
   "geometry": {
    "type": "LineString",
    "coordinates": [
     [
      11.57821,
      48.163561
     ],
     [
      11.574726,
      48.16614
     ],
     [
      11.57475,
      48.169125
     ],
     [
      11.570592,
      48.170836
     ],
     [
      11.567865,
      48.17348
     ],
     [
      11.563366,
      48.175394
     ],
     [
      11.557784,
      48.174509
     ],
     [
      11.553131,
      48.173425
     ],
     [
      11.546952,
      48.174218
     ],
     [
      11.543027,
      48.171943
     ],
     [
      11.541926,
      48.168761
     ],
     [
      11.540715,
      48.166159
     ],
     [
      11.538343,
      48.163561
     ],
     [
      11.537959,
      48.160544
     ],
     [
      11.540393,
      48.157858
     ],
     [
      11.546086,
      48.156916
     ],
     [
      11.548151,
      48.154084
     ],
     [
      11.552244,
      48.151818
     ],
     [
      11.557784,
      48.154007
     ],
     [
      11.562953,
      48.152602
     ],
     [
      11.567502,
      48.154
     ],
     [
      11.569596,
      48.156852
     ],
     [
      11.573439,
      48.158427
     ],
     [
      11.57409,
      48.161079
     ],
     [
      11.57821,
      48.163561
     ]
    ]
   }
  },
  {
   "type": "Feature",
   "properties": {
    "id": "route-01"
   },
   "geometry": {
    "type": "LineString",
    "coordinates": [
     [
      11.589041,
      48.154
     ],
     [
      11.589192,
      48.157562
     ],
     [
      11.590164,
      48.162415
     ],
     [
      11.58726,
      48.164752
     ],
     [
      11.585426,
      48.168442
     ],
     [
      11.581931,
      48.167943
     ],
     [
      11.579093,
      48.169032
     ],
     [
      11.576509,
      48.166696
     ],
     [
      11.574076,
      48.165438
     ],
     [
      11.570756,
      48.164975
     ],
     [
      11.568762,
      48.161852
     ],
     [
      11.568751,
      48.157648
     ],
     [
      11.5675,
      48.154
     ],
     [
      11.567406,
      48.149877
     ],
     [
      11.569928,
      48.147034
     ],
     [
      11.571378,
      48.143844
     ],
     [
      11.572881,
      48.139837
     ],
     [
      11.575769,
      48.137672
     ],
     [
      11.579093,
      48.138702
     ],
     [
      11.581827,
      48.140567
     ],
     [
      11.584514,
      48.141639
     ],
     [
      11.586781,
      48.143879
     ],
     [
      11.587851,
      48.147343
     ],
     [
      11.590827,
      48.149861
     ],
     [
      11.589041,
      48.154
     ]
    ]
   }
  },
  {
   "type": "Feature",
   "properties": {
    "id": "route-02"
   },
   "geometry": {
    "type": "LineString",
    "coordinates": [
     [
      11.56772,
      48.161061
     ],
     [
      11.572287,
      48.165203
     ],
     [
      11.567128,
      48.167976
     ],
     [
      11.566139,
      48.172372
     ],
     [
      11.558699,
      48.171961
     ],
     [
      11.554156,
      48.17311
     ],
     [
      11.549369,
      48.173132
     ],
     [
      11.544176,
      48.174131
     ],
     [
      11.538957,
      48.173224
     ],
     [
      11.534065,
      48.171382
     ],
     [
      11.529061,
      48.168969
     ],
     [
      11.531706,
      48.164253
     ],
     [
      11.52705,
      48.161061
     ],
     [
      11.526505,
      48.156929
     ],
     [
      11.532441,
      48.15447
     ],
     [
      11.533645,
      48.150456
     ],
     [
      11.539905,
      48.150006
     ],
     [
      11.543916,
      48.147337
     ],
     [
      11.549369,
      48.145575
     ],
     [
      11.554171,
      48.148973
     ],
     [
      11.561395,
      48.147012
     ],
     [
      11.564454,
      48.150887
     ],
     [
      11.567502,
      48.154
     ],
     [
      11.572119,
      48.15695
     ],
     [
      11.56772,
      48.161061
     ]
    ]
   }
  },
  {
   "type": "Feature",
   "properties": {
    "id": "route-03"
   },
   "geometry": {
    "type": "LineString",
    "coordinates": [
     [
      11.58215,
      48.132446
     ],
     [
      11.57951,
      48.135526
     ],
     [
      11.578638,
      48.13869
     ],
     [
      11.577449,
      48.142335
     ],
     [
      11.573371,
      48.144069
     ],
     [
      11.569594,
      48.146508
     ],
     [
      11.564759,
      48.14661
     ],
     [
      11.560633,
      48.144443
     ],
     [
      11.556512,
      48.143576
     ],
     [
      11.553957,
      48.140863
     ],
     [
      11.552354,
      48.138027
     ],
     [
      11.548113,
      48.135922
     ],
     [
      11.549398,
      48.132446
     ],
     [
      11.547693,
      48.128883
     ],
     [
      11.548955,
      48.125337
     ],
     [
      11.554655,
      48.124574
     ],
     [
      11.556683,
      48.121547
     ],
     [
      11.56014,
      48.119017
     ],
     [
      11.564759,
      48.121175
     ],
     [
      11.569567,
      48.118463
     ],
     [
      11.57211,
      48.122526
     ],
     [
      11.576988,
      48.122918
     ],
     [
      11.579695,
      48.125727
     ],
     [
      11.579171,
      48.129437
     ],
     [
      11.58215,
      48.132446
     ]
    ]
   }
  },
  {
   "type": "Feature",
   "properties": {
    "id": "route-04"
   },
   "geometry": {
    "type": "LineString",
    "coordinates": [
     [
      11.587689,
      48.142189
     ],
     [
      11.588314,
      48.144342
     ],
     [
      11.584232,
      48.145722
     ],
     [
      11.58341,
      48.147922
     ],
     [
      11.578882,
      48.148437
     ],
     [
      11.574854,
      48.148593
     ],
     [
      11.571199,
      48.150456
     ],
     [
      11.56725,
      48.149108
     ],
     [
      11.564429,
      48.147695
     ],
     [
      11.559173,
      48.147835
     ],
     [
      11.556892,
      48.146067
     ],
     [
      11.554134,
      48.144336
     ],
     [
      11.553378,
      48.142189
     ],
     [
      11.557202,
      48.140429
     ],
     [
      11.557021,
      48.138346
     ],
     [
      11.560009,
      48.136936
     ],
     [
      11.564013,
      48.136346
     ],
     [
      11.567648,
      48.135967
     ],
     [
      11.571199,
      48.134276
     ],
     [
      11.575565,
      48.13454
     ],
     [
      11.578641,
      48.136138
     ],
     [
      11.581669,
      48.137274
     ],
     [
      11.584274,
      48.138645
     ],
     [
      11.584368,
      48.140533
     ],
     [
      11.587689,
      48.142189
     ]
    ]
   }
  },
  {
   "type": "Feature",
   "properties": {
    "id": "route-05"
   },
   "geometry": {
    "type": "LineString",
    "coordinates": [
     [
      11.593151,
      48.137083
     ],
     [
      11.59416,
      48.141801
     ],
     [
      11.592059,
      48.145478
     ],
     [
      11.590498,
      48.149343
     ],
     [
      11.588114,
      48.152284
     ],
     [
      11.585201,
      48.153954
     ],
     [
      11.582108,
      48.155987
     ],
     [
      11.579033,
      48.153851
     ],
     [
      11.576282,
      48.151826
     ],
     [
      11.572415,
      48.151246
     ],
     [
      11.572046,
      48.145571
     ],
     [
      11.570289,
      48.14171
     ],
     [
      11.569447,
      48.137083
     ],
     [
      11.570108,
      48.132384
     ],
     [
      11.571212,
      48.12789
     ],
     [
      11.574131,
      48.125427
     ],
     [
      11.576302,
      48.122389
     ],
     [
      11.579128,
      48.120832
     ],
     [
      11.582108,
      48.120142
     ],
     [
      11.58544,
      48.118909
     ],
     [
      11.587721,
      48.122875
     ],
     [
      11.589912,
      48.125678
     ],
     [
      11.59334,
      48.127607
     ],
     [
      11.593284,
      48.132707
     ],
     [
      11.593151,
      48.137083
     ]
    ]
   }
  },
  {
   "type": "Feature",
   "properties": {
    "id": "route-06"
   },
   "geometry": {
    "type": "LineString",
    "coordinates": [
     [
      11.578464,
      48.134777
     ],
     [
      11.577803,
      48.137109
     ],
     [
      11.577698,
      48.139748
     ],
     [
      11.576378,
      48.142204
     ],
     [
      11.573789,
      48.143628
     ],
     [
      11.570734,
      48.143641
     ],
     [
      11.56808,
      48.143154
     ],
     [
      11.56508,
      48.144801
     ],
     [
      11.562819,
      48.142934
     ],
     [
      11.559943,
      48.142061
     ],
     [
      11.557967,
      48.140003
     ],
     [
      11.558145,
      48.13716
     ],
     [
      11.558746,
      48.134777
     ],
     [
      11.557635,
      48.132272
     ],
     [
      11.558203,
      48.129672
     ],
     [
      11.561343,
      48.128746
     ],
     [
      11.563032,
      48.12695
     ],
     [
      11.565341,
      48.125625
     ],
     [
      11.56808,
      48.124072
     ],
     [
      11.570776,
      48.12577
     ],
     [
      11.573864,
      48.125809
     ],
     [
      11.576224,
      48.127487
     ],
     [
      11.577784,
      48.129762
     ],
     [
      11.576815,
      48.132682
     ],
     [
      11.578464,
      48.134777
     ]
    ]
   }
  },
  {
   "type": "Feature",
   "properties": {
    "id": "route-07"
   },
   "geometry": {
    "type": "LineString",
    "coordinates": [
     [
      11.572597,
      48.119015
     ],
     [
      11.571753,
      48.121148
     ],
     [
      11.570276,
      48.122927
     ],
     [
      11.569134,
      48.124876
     ],
     [
      11.567015,
      48.126224
     ],
     [
      11.564325,
      48.126503
     ],
     [
      11.561822,
      48.126206
     ],
     [
      11.559431,
      48.12617
     ],
     [
      11.556594,
      48.126274
     ],
     [
      11.554822,
      48.124627
     ],
     [
      11.554058,
      48.122609
     ],
     [
      11.551561,
      48.121219
     ],
     [
      11.552077,
      48.119015
     ],
     [
      11.553216,
      48.117167
     ],
     [
      11.552849,
      48.114862
     ],
     [
      11.555876,
      48.114249
     ],
     [
      11.557316,
      48.112759
     ],
     [
      11.559742,
      48.112791
     ],
     [
      11.561822,
      48.112424
     ],
     [
      11.56436,
      48.111422
     ],
     [
      11.566836,
      48.112053
     ],
     [
      11.569371,
      48.112964
     ],
     [
      11.570881,
      48.114823
     ],
     [
      11.570801,
      48.117087
     ],
     [
      11.572597,
      48.119015
     ]
    ]
   }
  },
  {
   "type": "Feature",
   "properties": {
    "id": "route-08"
   },
   "geometry": {
    "type": "LineString",
    "coordinates": [
     [
      11.596826,
      48.138387
     ],
     [
      11.597073,
      48.140223
     ],
     [
      11.595682,
      48.142073
     ],
     [
      11.592876,
      48.143826
     ],
     [
      11.588397,
      48.145193
     ],
     [
      11.582758,
      48.14596
     ],
     [
      11.576737,
      48.144951
     ],
     [
      11.570912,
      48.145712
     ],
     [
      11.565963,
      48.144676
     ],
     [
      11.561837,
      48.143408
     ],
     [
      11.558347,
      48.141965
     ],
     [
      11.556288,
      48.140233
     ],
     [
      11.555785,
      48.138387
     ],
     [
      11.557077,
      48.136611
     ],
     [
      11.559246,
      48.134983
     ],
     [
      11.563183,
      48.133819
     ],
     [
      11.566005,
      48.132122
     ],
     [
      11.571576,
      48.131896
     ],
     [
      11.576737,
      48.131097
     ],
     [
      11.582364,
      48.131309
     ],
     [
      11.587927,
      48.131854
     ],
     [
      11.591607,
      48.133375
     ],
     [
      11.593265,
      48.135171
     ],
     [
      11.594358,
      48.136795
     ],
     [
      11.596826,
      48.138387
     ]
    ]
   }
  },
  {
   "type": "Feature",
   "properties": {
    "id": "route-09"
   },
   "geometry": {
    "type": "LineString",
    "coordinates": [
     [
      11.598351,
      48.128968
     ],
     [
      11.596707,
      48.1329
     ],
     [
      11.597795,
      48.138437
     ],
     [
      11.594133,
      48.139557
     ],
     [
      11.592692,
      48.143345
     ],
     [
      11.590051,
      48.144298
     ],
     [
      11.587463,
      48.14729
     ],
     [
      11.584594,
      48.145972
     ],
     [
      11.582685,
      48.142107
     ],
     [
      11.578694,
      48.14289
     ],
     [
      11.577335,
      48.138252
     ],
     [
      11.576446,
      48.133654
     ],
     [
      11.575617,
      48.128968
     ],
     [
      11.576801,
      48.124432
     ],
     [
      11.57718,
      48.119542
     ],
     [
      11.579708,
      48.116656
     ],
     [
      11.582551,
      48.11546
     ],
     [
      11.585004,
      48.114396
     ],
     [
      11.587463,
      48.11379
     ],
     [
      11.589907,
      48.114489
     ],
     [
      11.592516,
      48.115075
     ],
     [
      11.595554,
      48.116124
     ],
     [
      11.597361,
      48.119896
     ],
     [
      11.598164,
      48.124416
     ],
     [
      11.598351,
      48.128968
     ]
    ]
   }
  },
  {
   "type": "Feature",
   "properties": {
    "id": "route-10"
   },
   "geometry": {
    "type": "LineString",
    "coordinates": [
     [
      11.598642,
      48.143928
     ],
     [
      11.595371,
      48.145412
     ],
     [
      11.590408,
      48.146514
     ],
     [
      11.590725,
      48.148475
     ],
     [
      11.584533,
      48.149509
     ],
     [
      11.575859,
      48.149024
     ],
     [
      11.569477,
      48.149633
     ],
     [
      11.561874,
      48.150001
     ],
     [
      11.554488,
      48.149484
     ],
     [
      11.549688,
      48.148163
     ],
     [
      11.546043,
      48.146823
     ],
     [
      11.541485,
      48.145533
     ],
     [
      11.544458,
      48.143928
     ],
     [
      11.543912,
      48.142462
     ],
     [
      11.544791,
      48.140877
     ],
     [
      11.550449,
      48.139855
     ],
     [
      11.555475,
      48.138737
     ],
     [
      11.562503,
      48.138357
     ],
     [
      11.569477,
      48.138175
     ],
     [
      11.577301,
      48.137679
     ],
     [
      11.584661,
      48.138299
     ],
     [
      11.589726,
      48.139594
     ],
     [
      11.591122,
      48.141253
     ],
     [
      11.5961,
      48.142401
     ],
     [
      11.598642,
      48.143928
     ]
    ]
   }
  },
  {
   "type": "Feature",
   "properties": {
    "id": "route-11"
   },
   "geometry": {
    "type": "LineString",
    "coordinates": [
     [
      11.607768,
      48.131466
     ],
     [
      11.604186,
      48.13557
     ],
     [
      11.601778,
      48.139215
     ],
     [
      11.599497,
      48.143093
     ],
     [
      11.596113,
      48.146991
     ],
     [
      11.590269,
      48.14775
     ],
     [
      11.584726,
      48.149545
     ],
     [
      11.579065,
      48.148097
     ],
     [
      11.575467,
      48.14409
     ],
     [
      11.571036,
      48.142243
     ],
     [
      11.564333,
      48.140734
     ],
     [
      11.564826,
      48.135663
     ],
     [
      11.565439,
      48.131466
     ],
     [
      11.563963,
      48.127086
     ],
     [
      11.565355,
      48.122662
     ],
     [
      11.569054,
      48.119129
     ],
     [
      11.573717,
      48.116455
     ],
     [
      11.579877,
      48.11722
     ],
     [
      11.584726,
      48.113489
     ],
     [
      11.590726,
      48.113838
     ],
     [
      11.595207,
      48.117175
     ],
     [
      11.599227,
      48.120051
     ],
     [
      11.600342,
      48.124368
     ],
     [
      11.604705,
      48.127251
     ],
     [
      11.607768,
      48.131466
     ]
    ]
   }
  }
 ]
}
